{
  "norad_id": 58011,
  "name": "STARLINK-30497",
  "history": [
    {
      "epoch": "2026-03-28T16:11:40.288704",
      "apogee_km": 484.1864475909624,
      "perigee_km": 481.86888339025245,
      "latitude_deg": -40.29420778263723,
      "longitude_deg": 45.8780985600315,
      "semi_major_axis_km": 6861.164665490607,
      "eccentricity": 0.00016889,
      "inclination_deg": 43.0012,
      "raan_deg": 319.4956,
      "arg_perigee_deg": 266.4496,
      "mean_anomaly_deg": 93.6162,
      "mean_motion_rev_day": 15.27587157
    },
    {
      "epoch": "2026-03-29T00:02:27.437280",
      "apogee_km": 484.5466652140349,
      "perigee_km": 481.5675347358265,
      "latitude_deg": -6.9297123118671236,
      "longitude_deg": 77.26381919998676,
      "semi_major_axis_km": 6861.19409997493,
      "eccentricity": 0.0002171,
      "inclination_deg": 43.0037,
      "raan_deg": 317.6479,
      "arg_perigee_deg": 266.4935,
      "mean_anomaly_deg": 93.5669,
      "mean_motion_rev_day": 15.27577327
    }
  ]
}